CCSDS_OMM_VERS = 2.0
CREATION_DATE  = 
ORIGINATOR     = 

OBJECT_NAME    = RASSVET-3 2
OBJECT_ID      = 2026-061B
CENTER_NAME    = EARTH
REF_FRAME      = TEME
TIME_SYSTEM    = UTC
MEAN_ELEMENT_THEORY = SGP/SGP4

EPOCH          = 2026-03-31T15:47:00.561696
MEAN_MOTION    = 15.88526069
ECCENTRICITY   = .0027321
INCLINATION    = 82.2971
RA_OF_ASC_NODE = 99.7121
ARG_OF_PERICENTER = 44.8164
MEAN_ANOMALY   = 315.5307

EPHEMERIS_TYPE = 0
CLASSIFICATION_TYPE = U
NORAD_CAT_ID   = 68361
ELEMENT_SET_NO = 999
REV_AT_EPOCH   = 126
BSTAR          = .23031E-3
MEAN_MOTION_DOT = .66037E-3
MEAN_MOTION_DDOT = .36253E-6

CCSDS_OMM_VERS = 2.0
CREATION_DATE  = 
ORIGINATOR     = 

OBJECT_NAME    = RASSVET-3 3
OBJECT_ID      = 2026-061C
CENTER_NAME    = EARTH
REF_FRAME      = TEME
TIME_SYSTEM    = UTC
MEAN_ELEMENT_THEORY = SGP/SGP4

EPOCH          = 2026-03-31T15:46:50.210112
MEAN_MOTION    = 15.88549972
ECCENTRICITY   = .0027163
INCLINATION    = 82.2970
RA_OF_ASC_NODE = 99.7116
ARG_OF_PERICENTER = 44.7138
MEAN_ANOMALY   = 315.6316

EPHEMERIS_TYPE = 0
CLASSIFICATION_TYPE = U
NORAD_CAT_ID   = 68362
ELEMENT_SET_NO = 999
REV_AT_EPOCH   = 126
BSTAR          = .21986E-3
MEAN_MOTION_DOT = .63107E-3
MEAN_MOTION_DDOT = .23369E-6

CCSDS_OMM_VERS = 2.0
CREATION_DATE  = 
ORIGINATOR     = 

OBJECT_NAME    = RASSVET-3 4
OBJECT_ID      = 2026-061D
CENTER_NAME    = EARTH
REF_FRAME      = TEME
TIME_SYSTEM    = UTC
MEAN_ELEMENT_THEORY = SGP/SGP4

EPOCH          = 2026-03-31T15:46:40.237824
MEAN_MOTION    = 15.88567095
ECCENTRICITY   = .002719
INCLINATION    = 82.2971
RA_OF_ASC_NODE = 99.7117
ARG_OF_PERICENTER = 44.5884
MEAN_ANOMALY   = 315.7567

EPHEMERIS_TYPE = 0
CLASSIFICATION_TYPE = U
NORAD_CAT_ID   = 68363
ELEMENT_SET_NO = 999
REV_AT_EPOCH   = 126
BSTAR          = .21556E-3
MEAN_MOTION_DOT = .61936E-3
MEAN_MOTION_DDOT = .18393E-6

CCSDS_OMM_VERS = 2.0
CREATION_DATE  = 
ORIGINATOR     = 

OBJECT_NAME    = RASSVET-3 5
OBJECT_ID      = 2026-061E
CENTER_NAME    = EARTH
REF_FRAME      = TEME
TIME_SYSTEM    = UTC
MEAN_ELEMENT_THEORY = SGP/SGP4

EPOCH          = 2026-03-31T15:46:33.024288
MEAN_MOTION    = 15.88592069
ECCENTRICITY   = .0027131
INCLINATION    = 82.2970
RA_OF_ASC_NODE = 99.7112
ARG_OF_PERICENTER = 44.6670
MEAN_ANOMALY   = 315.6779

EPHEMERIS_TYPE = 0
CLASSIFICATION_TYPE = U
NORAD_CAT_ID   = 68364
ELEMENT_SET_NO = 999
REV_AT_EPOCH   = 126
BSTAR          = .2303E-3
MEAN_MOTION_DOT = .6622E-3
MEAN_MOTION_DDOT = .37193E-6

CCSDS_OMM_VERS = 2.0
CREATION_DATE  = 
ORIGINATOR     = 

OBJECT_NAME    = RASSVET-3 6
OBJECT_ID      = 2026-061F
CENTER_NAME    = EARTH
REF_FRAME      = TEME
TIME_SYSTEM    = UTC
MEAN_ELEMENT_THEORY = SGP/SGP4

EPOCH          = 2026-03-31T15:46:21.239328
MEAN_MOTION    = 15.88687592
ECCENTRICITY   = .0026941
INCLINATION    = 82.2971
RA_OF_ASC_NODE = 99.7112
ARG_OF_PERICENTER = 44.7847
MEAN_ANOMALY   = 315.5592

EPHEMERIS_TYPE = 0
CLASSIFICATION_TYPE = U
NORAD_CAT_ID   = 68365
ELEMENT_SET_NO = 999
REV_AT_EPOCH   = 126
BSTAR          = .26705E-3
MEAN_MOTION_DOT = .77066E-3
MEAN_MOTION_DDOT = .9066E-6

CCSDS_OMM_VERS = 2.0
CREATION_DATE  = 
ORIGINATOR     = 

OBJECT_NAME    = RASSVET-3 7
OBJECT_ID      = 2026-061G
CENTER_NAME    = EARTH
REF_FRAME      = TEME
TIME_SYSTEM    = UTC
MEAN_ELEMENT_THEORY = SGP/SGP4

EPOCH          = 2026-03-31T15:46:19.613280
MEAN_MOTION    = 15.88611878
ECCENTRICITY   = .0026925
INCLINATION    = 82.2970
RA_OF_ASC_NODE = 99.7112
ARG_OF_PERICENTER = 44.6743
MEAN_ANOMALY   = 315.6691

EPHEMERIS_TYPE = 0
CLASSIFICATION_TYPE = U
NORAD_CAT_ID   = 68366
ELEMENT_SET_NO = 999
REV_AT_EPOCH   = 126
BSTAR          = .21483E-3
MEAN_MOTION_DOT = .6183E-3
MEAN_MOTION_DDOT = .1801E-6

CCSDS_OMM_VERS = 2.0
CREATION_DATE  = 
ORIGINATOR     = 

OBJECT_NAME    = RASSVET-3 8
OBJECT_ID      = 2026-061H
CENTER_NAME    = EARTH
REF_FRAME      = TEME
TIME_SYSTEM    = UTC
MEAN_ELEMENT_THEORY = SGP/SGP4

EPOCH          = 2026-03-31T15:46:24.113856
MEAN_MOTION    = 15.88599119
ECCENTRICITY   = .0026929
INCLINATION    = 82.2970
RA_OF_ASC_NODE = 99.7109
ARG_OF_PERICENTER = 44.6140
MEAN_ANOMALY   = 315.7292

EPHEMERIS_TYPE = 0
CLASSIFICATION_TYPE = U
NORAD_CAT_ID   = 68367
ELEMENT_SET_NO = 999
REV_AT_EPOCH   = 126
BSTAR          = .22E-3
MEAN_MOTION_DOT = .63268E-3
MEAN_MOTION_DDOT = .24145E-6

CCSDS_OMM_VERS = 2.0
CREATION_DATE  = 
ORIGINATOR     = 

OBJECT_NAME    = RASSVET-3 9
OBJECT_ID      = 2026-061J
CENTER_NAME    = EARTH
REF_FRAME      = TEME
TIME_SYSTEM    = UTC
MEAN_ELEMENT_THEORY = SGP/SGP4

EPOCH          = 2026-03-31T15:46:03.215424
MEAN_MOTION    = 15.88838410
ECCENTRICITY   = .0026602
INCLINATION    = 82.2968
RA_OF_ASC_NODE = 99.7106
ARG_OF_PERICENTER = 44.7263
MEAN_ANOMALY   = 315.6146

EPHEMERIS_TYPE = 0
CLASSIFICATION_TYPE = U
NORAD_CAT_ID   = 68368
ELEMENT_SET_NO = 999
REV_AT_EPOCH   = 126
BSTAR          = .40633E-3
MEAN_MOTION_DOT = .117868E-2
MEAN_MOTION_DDOT = .3668E-5

CCSDS_OMM_VERS = 2.0
CREATION_DATE  = 
ORIGINATOR     = 

OBJECT_NAME    = RASSVET-3 10
OBJECT_ID      = 2026-061K
CENTER_NAME    = EARTH
REF_FRAME      = TEME
TIME_SYSTEM    = UTC
MEAN_ELEMENT_THEORY = SGP/SGP4

EPOCH          = 2026-03-31T15:46:05.226816
MEAN_MOTION    = 15.88648903
ECCENTRICITY   = .0026776
INCLINATION    = 82.2971
RA_OF_ASC_NODE = 99.7109
ARG_OF_PERICENTER = 44.5811
MEAN_ANOMALY   = 315.7607

EPHEMERIS_TYPE = 0
CLASSIFICATION_TYPE = U
NORAD_CAT_ID   = 68369
ELEMENT_SET_NO = 999
REV_AT_EPOCH   = 126
BSTAR          = .22598E-3
MEAN_MOTION_DOT = .65118E-3
MEAN_MOTION_DDOT = .3234E-6

CCSDS_OMM_VERS = 2.0
CREATION_DATE  = 
ORIGINATOR     = 

OBJECT_NAME    = RASSVET-3 11
OBJECT_ID      = 2026-061L
CENTER_NAME    = EARTH
REF_FRAME      = TEME
TIME_SYSTEM    = UTC
MEAN_ELEMENT_THEORY = SGP/SGP4

EPOCH          = 2026-03-31T15:45:45.048960
MEAN_MOTION    = 15.88690838
ECCENTRICITY   = .0026563
INCLINATION    = 82.2970
RA_OF_ASC_NODE = 99.7104
ARG_OF_PERICENTER = 44.4425
MEAN_ANOMALY   = 315.8970

EPHEMERIS_TYPE = 0
CLASSIFICATION_TYPE = U
NORAD_CAT_ID   = 68370
ELEMENT_SET_NO = 999
REV_AT_EPOCH   = 126
BSTAR          = .22715E-3
MEAN_MOTION_DOT = .65557E-3
MEAN_MOTION_DDOT = .3438E-6

CCSDS_OMM_VERS = 2.0
CREATION_DATE  = 
ORIGINATOR     = 

OBJECT_NAME    = RASSVET-3 12
OBJECT_ID      = 2026-061M
CENTER_NAME    = EARTH
REF_FRAME      = TEME
TIME_SYSTEM    = UTC
MEAN_ELEMENT_THEORY = SGP/SGP4

EPOCH          = 2026-03-31T15:45:33.283872
MEAN_MOTION    = 15.88746118
ECCENTRICITY   = .0026505
INCLINATION    = 82.2970
RA_OF_ASC_NODE = 99.7103
ARG_OF_PERICENTER = 44.4421
MEAN_ANOMALY   = 315.8970

EPHEMERIS_TYPE = 0
CLASSIFICATION_TYPE = U
NORAD_CAT_ID   = 68371
ELEMENT_SET_NO = 999
REV_AT_EPOCH   = 126
BSTAR          = .22899E-3
MEAN_MOTION_DOT = .66259E-3
MEAN_MOTION_DDOT = .37632E-6

CCSDS_OMM_VERS = 2.0
CREATION_DATE  = 
ORIGINATOR     = 

OBJECT_NAME    = RASSVET-3 13
OBJECT_ID      = 2026-061N
CENTER_NAME    = EARTH
REF_FRAME      = TEME
TIME_SYSTEM    = UTC
MEAN_ELEMENT_THEORY = SGP/SGP4

EPOCH          = 2026-03-31T15:45:19.160928
MEAN_MOTION    = 15.88751202
ECCENTRICITY   = .0026313
INCLINATION    = 82.2970
RA_OF_ASC_NODE = 99.7100
ARG_OF_PERICENTER = 44.3305
MEAN_ANOMALY   = 316.0066

EPHEMERIS_TYPE = 0
CLASSIFICATION_TYPE = U
NORAD_CAT_ID   = 68372
ELEMENT_SET_NO = 999
REV_AT_EPOCH   = 126
BSTAR          = .2264E-3
MEAN_MOTION_DOT = .65502E-3
MEAN_MOTION_DDOT = .34232E-6

